{
    "links": {
        "self": "http://www.neowsapp.com/rest/v1/neo/3309288?api_key=iIulBulltgU6a56xZRHN4H3l9WmuAYTsLGpBGhQ2"
    },
    "id": "3309288",
    "neo_reference_id": "3309288",
    "name": "(2005 YU8)",
    "designation": "2005 YU8",
    "nasa_jpl_url": "http://ssd.jpl.nasa.gov/sbdb.cgi?sstr=3309288",
    "absolute_magnitude_h": 23.7,
    "estimated_diameter": {
        "kilometers": {
            "estimated_diameter_min": 0.0483676488,
            "estimated_diameter_max": 0.1081533507
        },
        "meters": {
            "estimated_diameter_min": 48.3676488219,
            "estimated_diameter_max": 108.1533506775
        },
        "miles": {
            "estimated_diameter_min": 0.0300542543,
            "estimated_diameter_max": 0.0672033557
        },
        "feet": {
            "estimated_diameter_min": 158.6865169607,
            "estimated_diameter_max": 354.8338390368
        }
    },
    "is_potentially_hazardous_asteroid": false,
    "close_approach_data": [
        {
            "close_approach_date": "2006-01-13",
            "close_approach_date_full": "2006-Jan-13 22:23",
            "epoch_date_close_approach": 1137190980000,
            "relative_velocity": {
                "kilometers_per_second": "11.5466319871",
                "kilometers_per_hour": "41567.8751536046",
                "miles_per_hour": "25828.6610919717"
            },
            "miss_distance": {
                "astronomical": "0.0495268985",
                "lunar": "19.2659635165",
                "kilometers": "7409118.523306195",
                "miles": "4603812.768747691"
            },
            "orbiting_body": "Earth"
        }
    ],
    "orbital_data": {
        "orbit_id": "13",
        "orbit_determination_date": "2017-04-06 09:09:35",
        "first_observation_date": "2005-12-24",
        "last_observation_date": "2006-01-10",
        "data_arc_in_days": 17,
        "observations_used": 44,
        "orbit_uncertainty": "8",
        "minimum_orbit_intersection": ".0249063",
        "jupiter_tisserand_invariant": "3.627",
        "epoch_osculation": "2453733.5",
        "eccentricity": ".5428036587318615",
        "semi_major_axis": "2.012937700085676",
        "inclination": "4.033399210890134",
        "ascending_node_longitude": "279.2995897247533",
        "orbital_period": "1043.14319091046",
        "perihelion_distance": ".9203077516798724",
        "perihelion_argument": "237.2946514893943",
        "aphelion_distance": "3.10556764849148",
        "perihelion_time": "2453780.680095931309",
        "mean_anomaly": "343.7176384955868",
        "mean_motion": ".345110818089883",
        "equinox": "J2000",
        "orbit_class": {
            "orbit_class_type": "APO",
            "orbit_class_description": "Near-Earth asteroid orbits which cross the Earth’s orbit similar to that of 1862 Apollo",
            "orbit_class_range": "a (semi-major axis) > 1.0 AU; q (perihelion) < 1.017 AU"
        }
    },
    "is_sentry_object": false
}